OBJECT_NAME,OBJECT_ID,EPOCH,MEAN_MOTION,ECCENTRICITY,INCLINATION,RA_OF_ASC_NODE,ARG_OF_PERICENTER,MEAN_ANOMALY,EPHEMERIS_TYPE,CLASSIFICATION_TYPE,NORAD_CAT_ID,ELEMENT_SET_NO,REV_AT_EPOCH,BSTAR,MEAN_MOTION_DOT,MEAN_MOTION_DDOT
PERSEUS-M1,2014-033AF,2026-06-08T19:22:11.840736,14.95610313,.0010748,97.9642,103.8017,333.4788,26.5881,0,U,40039,999,64938,.16842E-3,.1811E-4,0
POLYITAN-1,2014-033AJ,2026-06-08T01:05:03.223680,15.32938693,.00079092,98.0952,184.4437,168.1396,192.0032,0,U,40042,999,65219,.5996053E-3,.19032E-3,0
TIGRISAT,2014-033AK,2026-06-08T08:34:16.789728,14.85127761,.00507024,97.7824,309.5722,103.3828,257.3046,0,U,40043,999,64431,.28834321E-3,.2469E-4,0
AEROCUBE 6A,2014-033AM,2026-06-08T04:57:40.779072,14.98009378,.0039366,97.7225,326.2518,47.7354,312.7195,0,U,40045,999,64527,.47354E-3,.5623E-4,0
AEROCUBE 6B,2014-033AN,2026-06-08T10:01:56.027712,14.99474948,.0039032,97.7230,326.2312,39.0451,321.3578,0,U,40046,999,64544,.48615391E-3,.5999E-4,0
CANX-4,2014-034C,2026-06-08T05:38:39.679872,14.81248501,.0013741,98.3133,34.2191,44.2907,315.9401,0,U,40055,999,64320,.13618E-3,.1005E-4,0
CANX-5,2014-034D,2026-06-08T10:28:22.359360,14.81266011,.00137329,98.3136,34.4710,43.8092,316.4206,0,U,40056,999,63404,.13568034E-3,.1002E-4,0
UKUBE-1,2014-037F,2026-06-08T20:06:40.550112,15.13419317,.000212,98.4240,162.2333,145.0841,215.0527,0,U,40074,999,64729,.46974E-3,.8317E-4,0
BRITE-PL2 (HEWELIUSZ),2014-049B,2026-06-08T19:17:14.222976,14.94567394,.0015166,97.9089,271.7398,133.3878,226.8607,0,U,40119,999,64019,.22026E-3,.2327E-4,0
AEROCUBE 5C,2015-058B,2026-06-08T17:19:45.532128,14.91414898,.0130422,64.7678,288.9239,66.5916,294.8849,0,U,40965,999,36439,.26001E-3,.2888E-4,0
AEROCUBE 7,2015-058C,2026-06-08T17:49:14.321568,14.95673112,.0120142,64.7627,271.2652,65.0658,296.2883,0,U,40966,999,36469,.31598E-3,.3895E-4,0
FOX-1A (AO-85),2015-058D,2026-06-08T18:24:19.848096,14.90929725,.012997,64.7758,305.1507,59.8929,301.4993,0,U,40967,999,11231,.27655E-3,.3039E-4,0
SINOD-D 1,2015-058E,2026-06-08T17:18:56.869920,14.95852167,.0118557,64.7760,285.4228,56.4584,304.7786,0,U,40968,999,11539,.31553E-3,.3894E-4,0
SNAP-3 ALICE,2015-058G,2026-06-08T07:43:25.014720,15.58059513,.00306265,64.7500,134.5296,17.4495,342.7695,0,U,40970,999,11550,.1477614E-2,.115544E-2,0
LMRST-SAT,2015-058H,2026-06-08T18:53:30.084864,14.90552893,.0131641,64.7765,301.4098,61.9016,299.5330,0,U,40971,999,11230,.2638E-3,.2873E-4,0
SNAP-3 EDDIE,2015-058J,2026-06-08T04:34:20.752608,15.59200283,.00305946,64.7422,125.7723,21.6245,338.6184,0,U,40972,999,11762,.12325481E-2,.100423E-2,0
PROPCUBE 3,2015-058K,2026-06-08T17:01:38.815392,14.94210956,.012365,64.7692,279.0224,63.2696,298.1009,0,U,40973,999,11353,.2866E-3,.3403E-4,0
BISONSAT,2015-058L,2026-06-08T10:59:30.743808,15.16008968,.00783941,64.7590,201.8622,50.8621,309.9436,0,U,40974,999,11429,.41810662E-3,.8524E-4,0
SNAP-3 JIMI,2015-058M,2026-06-08T08:02:52.169856,15.02222356,.01057191,64.7649,247.7776,58.9972,302.1477,0,U,40975,999,11289,.30224973E-3,.4322E-4,0
PROPCUBE 1 (FLORA),2015-058N,2026-06-08T19:14:11.290848,14.89182296,.0130376,64.7755,321.2252,64.2084,297.2411,0,U,40976,999,11501,.25314E-3,.2638E-4,0
SINOD-D 3,2015-058P,2026-06-08T17:45:16.524576,14.93963241,.0118875,64.7735,302.1968,61.4937,299.8086,0,U,40977,999,11349,.33314E-3,.3914E-4,0
HORYU-4,2016-012D,2026-06-07T15:50:33.220608,15.89027763,.00028324,30.9848,148.6331,206.9121,153.1392,0,U,41340,999,56929,.1021123E-2,.317249E-2,0
RAVAN,2016-067B,2026-06-08T17:43:37.154208,15.53870911,.0005655,97.9899,48.3393,54.3591,305.8187,0,U,41849,999,52638,.79343E-3,.51232E-3,0
CELTEE 1,2016-067C,2026-06-08T09:12:30.678624,15.19595408,.00006258,98.0685,25.3505,106.7454,253.3848,0,U,41850,999,52454,.24341958E-3,.5104E-4,0
OPTICUBE 04,2016-067D,2026-06-08T20:38:40.898112,15.09625809,.0016488,98.0713,11.7096,141.8171,218.4228,0,U,41851,999,52391,.16873E-3,.265E-4,0
AEROCUBE 8D,2016-067E,2026-06-08T08:37:26.146560,15.24273762,.00041554,98.0697,28.8593,145.1351,215.0157,0,U,41852,999,52472,.26652239E-3,.6428E-4,0
AEROCUBE 8C,2016-067F,2026-06-08T09:15:29.154240,15.24519838,.00068247,98.0569,26.1268,92.5986,267.6031,0,U,41853,999,52472,.29385701E-3,.7152E-4,0
CORVUS BC2,2017-042X,2026-06-08T10:13:20.333856,15.06240547,.00142033,97.4061,321.1181,137.0473,223.1867,0,U,42846,999,48574,.19239803E-3,.2769E-4,0
CORVUS BC1,2017-042Y,2026-06-08T10:07:00.287904,15.06407941,.00133065,97.4085,321.9220,115.8711,244.3891,0,U,42847,999,48577,.19173968E-3,.2771E-4,0
MAKERSAT 0,2017-073D,2026-06-07T15:26:30.138432,15.31756991,.01061352,97.4640,41.0894,307.5668,51.5969,0,U,43016,999,46500,.58053729E-3,.21201E-3,0
